EUTELSAT 115 WEST B     
1 40425U 15010B   25200.67610646 -.00000021  00000+0  00000+0 0  9999
2 40425   0.0065 193.5673 0000224 248.8867 343.7570  1.00268322 38052
EUTELSAT 8 WEST B       
1 40875U 15039B   25200.88239274 -.00000063  00000+0  00000+0 0  9992
2 40875   0.0637  12.8162 0003723 103.0849 131.6708  1.00272090 36323
EUTELSAT 9B             
1 41310U 16005A   25200.93864363  .00000064  00000+0  00000+0 0  9990
2 41310   0.0451  69.3140 0001036  56.9797 158.5566  1.00271732 34788
EUTELSAT 65 WEST A      
1 41382U 16014A   25201.14419626 -.00000274  00000+0  00000+0 0  9995
2 41382   0.0607 324.8217 0002256 155.3225 164.7232  1.00272658 34315
EUTELSAT 117 WEST B     
1 41589U 16038B   25200.42058593 -.00000007  00000+0  00000+0 0  9996
2 41589   0.0068 166.6853 0000269 292.6434 232.5400  1.00270730 33322
EUTELSAT 172B           
1 42741U 17029B   25200.51874437 -.00000002  00000+0  00000+0 0  9996
2 42741   0.0201  79.5589 0000349 156.0760  60.6651  1.00270692 30393
EUTELSAT 7C             
1 44334U 19034B   25200.55739789  .00000052  00000+0  00000+0 0  9992
2 44334   0.0720 192.7370 0003166 271.9499  40.5560  1.00270285  3508
EUTELSAT 5 WEST B       
1 44624U 19067A   25200.88239274 -.00000039  00000+0  00000+0 0  9996
2 44624   0.0868 315.5167 0002998 166.4785 128.5634  1.00271747 21109
